OBJECT_NAME,OBJECT_ID,EPOCH,MEAN_MOTION,ECCENTRICITY,INCLINATION,RA_OF_ASC_NODE,ARG_OF_PERICENTER,MEAN_ANOMALY,EPHEMERIS_TYPE,CLASSIFICATION_TYPE,NORAD_CAT_ID,ELEMENT_SET_NO,REV_AT_EPOCH,BSTAR,MEAN_MOTION_DOT,MEAN_MOTION_DDOT
GOES 16,2016-071A,2026-07-14T16:20:29.113728,1.00270922,.0000527,0.4025,85.4749,98.1238,249.3671,0,U,41866,999,3537,0,-.99E-6,0
TIANLIAN 1-04,2016-072A,2026-07-14T19:23:18.317760,1.00271125,.0044075,0.9371,82.7308,90.4910,227.0468,0,U,41869,999,3557,0,.21E-6,0
WGS F8 (USA 272),2016-075A,2026-07-14T17:33:07.166016,1.00269947,.0000197,0.0189,38.7363,326.9190,340.0334,0,U,41879,999,3509,0,-.211E-5,0
FENGYUN 4A,2016-077A,2026-07-14T19:08:19.752576,1.00268349,.0008506,2.3898,79.9598,159.5927,103.9340,0,U,41882,999,3520,0,-.367E-5,0
ECHOSTAR 19,2016-079A,2026-07-14T19:48:00.947808,1.00271542,.0001249,0.0166,50.3681,71.5406,10.6711,0,U,41893,999,3498,0,-.147E-5,0
JCSAT-110A (JCSAT-15),2016-082A,2026-07-14T20:57:45.425088,1.00270039,.0000443,0.0168,41.1197,100.8309,215.2787,0,U,41903,999,3503,0,-.359E-5,0
STAR ONE D1,2016-082B,2026-07-14T19:51:45.590400,1.00268571,.0002343,0.0421,70.9000,59.1727,16.5964,0,U,41904,999,3505,0,0,0
TJS-2,2017-001A,2026-07-14T21:05:54.341952,1.00270499,.0000808,0.9025,84.9506,109.1401,121.6528,0,U,41911,999,3499,0,-.15E-6,0
SBIRS GEO-4 (USA 273),2017-004A,2026-07-14T20:08:17.560896,1.00281898,.0002566,2.2952,43.9816,66.3818,146.0452,0,U,41937,999,3487,0,.118E-5,0
HISPASAT 36W-1,2017-006A,2026-07-14T01:16:08.842368,1.00270272,.00010356,0.0090,302.2762,169.9893,162.6895,0,U,41942,999,3451,0,-.251E-5,0
TELKOM 3S,2017-007A,2026-07-14T05:25:16.851936,1.00270767,.00019737,0.0183,79.6116,31.8917,19.9065,0,U,41944,999,3441,0,-.369E-5,0
INTELSAT 32E (IS-32E),2017-007B,2026-07-14T18:20:40.106976,1.00266622,.0000277,0.0230,50.3038,277.5143,196.7998,0,U,41945,999,3450,0,0,0
ECHOSTAR 23,2017-014A,2026-07-14T14:36:21.896928,1.00270806,.0002092,0.0040,109.9387,359.9135,291.8040,0,U,42070,999,3419,0,-.65E-6,0
WGS F9 (USA 275),2017-016A,2026-07-13T16:49:44.657184,1.00271906,.00005007,0.0259,29.5332,204.3837,298.1244,0,U,42075,999,3416,0,0,0
SES-10,2017-017A,2026-07-14T18:13:48.264960,1.00268415,.0002543,0.0171,45.0346,73.1383,20.9838,0,U,42432,999,3403,0,-.281E-5,0
CHINASAT 16 (SJ-13),2017-018A,2026-07-14T00:15:16.659936,1.00268531,.00050422,0.0866,88.8103,135.5393,181.8733,0,U,42662,999,3401,0,-.358E-5,0
KOREASAT 7,2017-023A,2026-07-14T05:38:38.957568,1.00271655,.00009475,0.0260,50.8541,95.1528,346.6529,0,U,42691,999,3364,0,-.368E-5,0
SGDC,2017-023B,2026-07-14T09:30:23.560128,1.00270708,.0002213,0.0206,64.8434,56.8675,238.2940,0,U,42692,999,3368,0,-.257E-5,0
GSAT-9,2017-024A,2026-07-14T19:00:42.983424,1.00267751,.0002328,0.0850,91.2493,32.8904,190.9501,0,U,42695,999,3357,0,-.294E-5,0
INMARSAT 5-F4,2017-025A,2026-07-14T01:42:36.304992,1.00272708,.00004367,0.0033,109.2613,82.2635,182.5773,0,U,42698,999,3354,0,.69E-6,0
SES-15,2017-026A,2026-07-14T16:13:29.785152,1.00268487,.000026,0.0261,330.1277,133.0444,303.5689,0,U,42709,999,770,0,.52E-6,0
QZS-2 (MICHIBIKI-2),2017-028A,2026-07-14T10:42:39.613248,1.00276942,.07575565,39.3876,242.7519,269.5906,83.0468,0,U,42738,999,790,0,-.12E-5,0
VIASAT-2,2017-029A,2026-07-14T18:12:55.850400,1.00270402,.0000225,0.0191,309.4096,296.0516,250.5017,0,U,42740,999,3348,0,-.274E-5,0
EUTELSAT 172B,2017-029B,2026-07-14T19:22:03.435744,1.00269728,.0000183,0.0238,128.9079,186.1455,80.1188,0,U,42741,999,3401,0,-.15E-6,0
GSAT-19,2017-031A,2026-07-14T20:40:20.741088,1.00270032,.0006191,0.0381,88.0236,1.5726,201.0858,0,U,42747,999,3342,0,.117E-5,0
ECHOSTAR 21,2017-032A,2026-07-14T13:27:59.078016,1.00273285,.0001958,1.7704,357.4644,111.2018,36.0243,0,U,42749,999,3337,0,.6E-6,0
BULGARIASAT-1,2017-038A,2026-07-14T18:33:32.021856,1.00271193,.0003056,0.0017,354.8488,123.5946,94.4596,0,U,42801,999,3312,0,.2E-7,0
HELLAS-SAT 3,2017-040A,2026-07-14T20:29:04.394112,1.00271088,.0003191,0.0492,48.3656,27.6901,202.9048,0,U,42814,999,3308,0,.144E-5,0
GSAT-17,2017-040B,2026-07-14T18:59:43.077984,1.00270632,.000224,0.0712,88.3883,167.6413,55.0374,0,U,42815,999,3306,0,-.266E-5,0
INTELSAT 35E (IS-35E),2017-041A,2026-07-14T18:23:09.869280,1.00267005,.0001618,0.0257,55.5687,55.6099,62.7373,0,U,42818,999,3309,0,0,0
COSMOS 2520,2017-046A,2026-07-13T22:14:00.515040,1.00269251,.00010153,0.0371,107.3958,352.7379,210.1305,0,U,42907,999,3266,0,.132E-5,0
TDRS 13,2017-047A,2026-07-14T19:22:38.526240,1.00271577,.0014741,3.4593,3.4065,111.3651,97.1477,0,U,42915,999,3262,0,-.108E-5,0
