GOES 16                 
1 41866U 16071A   26195.68089252 -.00000099  00000+0  00000+0 0  9990
2 41866   0.4025  85.4749 0000527  98.1238 249.3671  1.00270922 35373
TIANLIAN 1-04           
1 41869U 16072A   26195.80785090  .00000021  00000+0  00000+0 0  9995
2 41869   0.9371  82.7308 0044075  90.4910 227.0468  1.00271125 35579
WGS F8 (USA 272)        
1 41879U 16075A   26195.73133294 -.00000211  00000+0  00000+0 0  9996
2 41879   0.0189  38.7363 0000197 326.9190 340.0334  1.00269947 35098
FENGYUN 4A              
1 41882U 16077A   26195.79745084 -.00000367  00000+0  00000+0 0  9996
2 41882   2.3898  79.9598 0008506 159.5927 103.9340  1.00268349 35202
ECHOSTAR 19             
1 41893U 16079A   26195.82501097 -.00000147  00000+0  00000+0 0  9994
2 41893   0.0166  50.3681 0001249  71.5406  10.6711  1.00271542 34984
JCSAT-110A (JCSAT-15)   
1 41903U 16082A   26195.87344242 -.00000359  00000+0  00000+0 0  9997
2 41903   0.0168  41.1197 0000443 100.8309 215.2787  1.00270039 35034
STAR ONE D1             
1 41904U 16082B   26195.82761100  .00000000  00000+0  00000+0 0  9991
2 41904   0.0421  70.9000 0002343  59.1727  16.5964  1.00268571 35050
TJS-2                   
1 41911U 17001A   26195.87910118 -.00000015  00000+0  00000+0 0  9998
2 41911   0.9025  84.9506 0000808 109.1401 121.6528  1.00270499 34990
SBIRS GEO-4 (USA 273)   
1 41937U 17004A   26195.83909214  .00000118  00000+0  00000+0 0  9993
2 41937   2.2952  43.9816 0002566  66.3818 146.0452  1.00281898 34879
HISPASAT 36W-1          
1 41942U 17006A   26195.05288012 -.00000251  00000+0  00000+0 0  9990
2 41942   0.0090 302.2762 0001035 169.9893 162.6895  1.00270272 34518
TELKOM 3S               
1 41944U 17007A   26195.22588949 -.00000369  00000+0  00000+0 0  9994
2 41944   0.0183  79.6116 0001973  31.8917  19.9065  1.00270767 34417
INTELSAT 32E (IS-32E)   
1 41945U 17007B   26195.76435309  .00000000  00000+0  00000+0 0  9996
2 41945   0.0230  50.3038 0000277 277.5143 196.7998  1.00266622 34500
ECHOSTAR 23             
1 42070U 17014A   26195.60858677 -.00000065  00000+0  00000+0 0  9996
2 42070   0.0040 109.9387 0002092 359.9135 291.8040  1.00270806 34199
WGS F9 (USA 275)        
1 42075U 17016A   26194.70121131  .00000000  00000+0  00000+0 0  9999
2 42075   0.0259  29.5332 0000500 204.3837 298.1244  1.00271906 34162
SES-10                  
1 42432U 17017A   26195.75958640 -.00000281  00000+0  00000+0 0  9998
2 42432   0.0171  45.0346 0002543  73.1383  20.9838  1.00268415 34034
CHINASAT 16 (SJ-13)     
1 42662U 17018A   26195.01060949 -.00000358  00000+0  00000+0 0  9994
2 42662   0.0866  88.8103 0005042 135.5393 181.8733  1.00268531 34015
KOREASAT 7              
1 42691U 17023A   26195.23517312 -.00000368  00000+0  00000+0 0  9998
2 42691   0.0260  50.8541 0000947  95.1528 346.6529  1.00271655 33643
SGDC                    
1 42692U 17023B   26195.39610602 -.00000257  00000+0  00000+0 0  9999
2 42692   0.0206  64.8434 0002213  56.8675 238.2940  1.00270708 33680
GSAT-9                  
1 42695U 17024A   26195.79216416 -.00000294  00000+0  00000+0 0  9993
2 42695   0.0850  91.2493 0002328  32.8904 190.9501  1.00267751 33572
INMARSAT 5-F4           
1 42698U 17025A   26195.07125353  .00000069  00000+0  00000+0 0  9996
2 42698   0.0033 109.2613 0000436  82.2635 182.5773  1.00272708 33543
SES-15                  
1 42709U 17026A   26195.67603918  .00000052  00000+0  00000+0 0  9996
2 42709   0.0261 330.1277 0000260 133.0444 303.5689  1.00268487  7707
QZS-2 (MICHIBIKI-2)     
1 42738U 17028A   26195.44629182 -.00000120  00000+0  00000+0 0  9993
2 42738  39.3876 242.7519 0757556 269.5906  83.0468  1.00276942  7900
VIASAT-2                
1 42740U 17029A   26195.75897975 -.00000274  00000+0  00000+0 0  9998
2 42740   0.0191 309.4096 0000225 296.0516 250.5017  1.00270402 33483
EUTELSAT 172B           
1 42741U 17029B   26195.80698421 -.00000015  00000+0  00000+0 0  9993
2 42741   0.0238 128.9079 0000183 186.1455  80.1188  1.00269728 34010
GSAT-19                 
1 42747U 17031A   26195.86135117  .00000117  00000+0  00000+0 0  9998
2 42747   0.0381  88.0236 0006191   1.5726 201.0858  1.00270032 33424
ECHOSTAR 21             
1 42749U 17032A   26195.56110044  .00000060  00000+0  00000+0 0  9997
2 42749   1.7704 357.4644 0001958 111.2018  36.0243  1.00273285 33379
BULGARIASAT-1           
1 42801U 17038A   26195.77328729  .00000002  00000+0  00000+0 0  9992
2 42801   0.0017 354.8488 0003056 123.5946  94.4596  1.00271193 33129
HELLAS-SAT 3            
1 42814U 17040A   26195.85352308  .00000144  00000+0  00000+0 0  9995
2 42814   0.0492  48.3656 0003191  27.6901 202.9048  1.00271088 33083
GSAT-17                 
1 42815U 17040B   26195.79147081 -.00000266  00000+0  00000+0 0  9995
2 42815   0.0712  88.3883 0002240 167.6413  55.0374  1.00270632 33063
INTELSAT 35E (IS-35E)   
1 42818U 17041A   26195.76608645  .00000000  00000+0  00000+0 0  9999
2 42818   0.0257  55.5687 0001618  55.6099  62.7373  1.00267005 33099
COSMOS 2520             
1 42907U 17046A   26194.92639485  .00000132  00000+0  00000+0 0  9992
2 42907   0.0371 107.3958 0001015 352.7379 210.1305  1.00269251 32666
TDRS 13                 
1 42915U 17047A   26195.80739035 -.00000108  00000+0  00000+0 0  9996
2 42915   3.4593   3.4065 0014741 111.3651  97.1477  1.00271577 32628
